{
    "links": {
        "self": "http://www.neowsapp.com/rest/v1/neo/3644733?api_key=iIulBulltgU6a56xZRHN4H3l9WmuAYTsLGpBGhQ2"
    },
    "id": "3644733",
    "neo_reference_id": "3644733",
    "name": "(2013 NG6)",
    "designation": "2013 NG6",
    "nasa_jpl_url": "http://ssd.jpl.nasa.gov/sbdb.cgi?sstr=3644733",
    "absolute_magnitude_h": 22.2,
    "estimated_diameter": {
        "kilometers": {
            "estimated_diameter_min": 0.096506147,
            "estimated_diameter_max": 0.2157943048
        },
        "meters": {
            "estimated_diameter_min": 96.5061469579,
            "estimated_diameter_max": 215.7943048444
        },
        "miles": {
            "estimated_diameter_min": 0.059966121,
            "estimated_diameter_max": 0.134088323
        },
        "feet": {
            "estimated_diameter_min": 316.6212271853,
            "estimated_diameter_max": 707.9865871058
        }
    },
    "is_potentially_hazardous_asteroid": false,
    "close_approach_data": [
        {
            "close_approach_date": "2013-06-29",
            "close_approach_date_full": "2013-Jun-29 20:17",
            "epoch_date_close_approach": 1372537020000,
            "relative_velocity": {
                "kilometers_per_second": "4.6932835201",
                "kilometers_per_hour": "16895.8206723995",
                "miles_per_hour": "10498.4059061362"
            },
            "miss_distance": {
                "astronomical": "0.2853699171",
                "lunar": "111.0088977519",
                "kilometers": "42690731.760236577",
                "miles": "26526790.6521836826"
            },
            "orbiting_body": "Earth"
        }
    ],
    "orbital_data": {
        "orbit_id": "14",
        "orbit_determination_date": "2017-04-06 08:45:27",
        "first_observation_date": "2013-07-02",
        "last_observation_date": "2013-08-13",
        "data_arc_in_days": 42,
        "observations_used": 36,
        "orbit_uncertainty": "6",
        "minimum_orbit_intersection": ".260656",
        "jupiter_tisserand_invariant": "3.599",
        "epoch_osculation": "2459000.5",
        "eccentricity": ".4018320754981534",
        "semi_major_axis": "2.134658326924581",
        "inclination": "7.974523714610978",
        "ascending_node_longitude": "273.6928592119881",
        "orbital_period": "1139.176414079319",
        "perihelion_distance": "1.276884140937061",
        "perihelion_argument": "358.2855530337206",
        "aphelion_distance": "2.9924325129121",
        "perihelion_time": "2458737.937013725580",
        "mean_anomaly": "82.97457170861854",
        "mean_motion": ".3160177787660322",
        "equinox": "J2000",
        "orbit_class": {
            "orbit_class_type": "AMO",
            "orbit_class_description": "Near-Earth asteroid orbits similar to that of 1221 Amor",
            "orbit_class_range": "1.017 AU < q (perihelion) < 1.3 AU"
        }
    },
    "is_sentry_object": false
}